[{"OBJECT_NAME":"STARLINK-2222","OBJECT_ID":"2021-041V","EPOCH":"2026-03-09T11:45:16.353504","MEAN_MOTION":15.06409495,"ECCENTRICITY":0.00018787,"INCLINATION":53.0557,"RA_OF_ASC_NODE":142.5171,"ARG_OF_PERICENTER":98.5623,"MEAN_ANOMALY":261.5579,"EPHEMERIS_TYPE":0,"CLASSIFICATION_TYPE":"U","NORAD_CAT_ID":48572,"ELEMENT_SET_NO":999,"REV_AT_EPOCH":26503,"BSTAR":0.00016147723,"MEAN_MOTION_DOT":2.125e-5,"MEAN_MOTION_DDOT":0},{"OBJECT_NAME":"CZ-6A DEB","OBJECT_ID":"2024-140FV","EPOCH":"2026-03-09T14:13:09.917760","MEAN_MOTION":15.12617909,"ECCENTRICITY":0.0033796,"INCLINATION":89.006,"RA_OF_ASC_NODE":281.0752,"ARG_OF_PERICENTER":172.4402,"MEAN_ANOMALY":187.7356,"EPHEMERIS_TYPE":0,"CLASSIFICATION_TYPE":"U","NORAD_CAT_ID":60794,"ELEMENT_SET_NO":999,"REV_AT_EPOCH":8371,"BSTAR":0.0056743,"MEAN_MOTION_DOT":0.0010168,"MEAN_MOTION_DDOT":0}]
